{"fetched_at":"2026-07-08T17:59:26.812Z","source":"https://celestrak.org/NORAD/elements/gp.php?GROUP=planet&FORMAT=JSON","constellation":"superdove","records":[{"OBJECT_NAME":"FLOCK 4BE-17","OBJECT_ID":"2024-149AA","EPOCH":"2026-07-08T12:46:11.076096","CLASSIFICATION_TYPE":"U","MEAN_MOTION":15.40431005,"ECCENTRICITY":0.0003924,"INCLINATION":97.3766,"RA_OF_ASC_NODE":273.0777,"ARG_OF_PERICENTER":163.3238,"MEAN_ANOMALY":196.8138,"EPHEMERIS_TYPE":0,"NORAD_CAT_ID":60492,"ELEMENT_SET_NO":999,"REV_AT_EPOCH":10554,"BSTAR":0.00028961,"MEAN_MOTION_DOT":0.00011641,"MEAN_MOTION_DDOT":0},{"OBJECT_NAME":"FLOCK 4BE-22","OBJECT_ID":"2024-149AC","EPOCH":"2026-07-08T11:51:50.148288","CLASSIFICATION_TYPE":"U","MEAN_MOTION":15.41839803,"ECCENTRICITY":0.0004237,"INCLINATION":97.3726,"RA_OF_ASC_NODE":273.2656,"ARG_OF_PERICENTER":173.2037,"MEAN_ANOMALY":186.9268,"EPHEMERIS_TYPE":0,"NORAD_CAT_ID":60494,"ELEMENT_SET_NO":999,"REV_AT_EPOCH":10558,"BSTAR":0.00029098,"MEAN_MOTION_DOT":0.00012258,"MEAN_MOTION_DDOT":0},{"OBJECT_NAME":"FLOCK 4BE-34","OBJECT_ID":"2024-149AD","EPOCH":"2026-07-08T04:29:37.516992","CLASSIFICATION_TYPE":"U","MEAN_MOTION":15.41798409,"ECCENTRICITY":0.000417,"INCLINATION":97.3776,"RA_OF_ASC_NODE":273.791,"ARG_OF_PERICENTER":181.2042,"MEAN_ANOMALY":178.9195,"EPHEMERIS_TYPE":0,"NORAD_CAT_ID":60495,"ELEMENT_SET_NO":999,"REV_AT_EPOCH":10556,"BSTAR":0.00024425,"MEAN_MOTION_DOT":0.00010259,"MEAN_MOTION_DDOT":0},{"OBJECT_NAME":"FLOCK 4BE-32","OBJECT_ID":"2024-149AF","EPOCH":"2026-07-08T04:57:13.486176","CLASSIFICATION_TYPE":"U","MEAN_MOTION":15.42908017,"ECCENTRICITY":0.0004334,"INCLINATION":97.3711,"RA_OF_ASC_NODE":273.3706,"ARG_OF_PERICENTER":179.3861,"MEAN_ANOMALY":180.7392,"EPHEMERIS_TYPE":0,"NORAD_CAT_ID":60497,"ELEMENT_SET_NO":999,"REV_AT_EPOCH":10557,"BSTAR":0.00029041,"MEAN_MOTION_DOT":0.0001268,"MEAN_MOTION_DDOT":0},{"OBJECT_NAME":"FLOCK 4BE-11","OBJECT_ID":"2024-149AK","EPOCH":"2026-07-08T12:20:19.283712","CLASSIFICATION_TYPE":"U","MEAN_MOTION":15.43709934,"ECCENTRICITY":0.0004417,"INCLINATION":97.3691,"RA_OF_ASC_NODE":273.932,"ARG_OF_PERICENTER":177.6151,"MEAN_ANOMALY":182.5119,"EPHEMERIS_TYPE":0,"NORAD_CAT_ID":60501,"ELEMENT_SET_NO":999,"REV_AT_EPOCH":10564,"BSTAR":0.00030425,"MEAN_MOTION_DOT":0.00013655,"MEAN_MOTION_DDOT":0},{"OBJECT_NAME":"FLOCK 4BE-24","OBJECT_ID":"2024-149AP","EPOCH":"2026-07-07T17:18:10.899936","CLASSIFICATION_TYPE":"U","MEAN_MOTION":15.43889466,"ECCENTRICITY":0.0004417,"INCLINATION":97.3707,"RA_OF_ASC_NODE":273.3935,"ARG_OF_PERICENTER":193.1566,"MEAN_ANOMALY":166.9568,"EPHEMERIS_TYPE":0,"NORAD_CAT_ID":60505,"ELEMENT_SET_NO":999,"REV_AT_EPOCH":10553,"BSTAR":0.00032481,"MEAN_MOTION_DOT":0.00014674,"MEAN_MOTION_DDOT":0},{"OBJECT_NAME":"FLOCK 4BE-29","OBJECT_ID":"2024-149AT","EPOCH":"2026-07-08T01:00:12.051360","CLASSIFICATION_TYPE":"U","MEAN_MOTION":15.45027166,"ECCENTRICITY":0.0002945,"INCLINATION":97.3802,"RA_OF_ASC_NODE":275.2387,"ARG_OF_PERICENTER":194.5091,"MEAN_ANOMALY":165.6074,"EPHEMERIS_TYPE":0,"NORAD_CAT_ID":60509,"ELEMENT_SET_NO":999,"REV_AT_EPOCH":10563,"BSTAR":0.00059268,"MEAN_MOTION_DOT":0.00027945,"MEAN_MOTION_DDOT":0},{"OBJECT_NAME":"FLOCK 4BE-2","OBJECT_ID":"2024-149AV","EPOCH":"2026-07-08T12:04:35.124384","CLASSIFICATION_TYPE":"U","MEAN_MOTION":15.55260311,"ECCENTRICITY":0.0005055,"INCLINATION":97.3822,"RA_OF_ASC_NODE":277.4434,"ARG_OF_PERICENTER":190.8164,"MEAN_ANOMALY":169.2983,"EPHEMERIS_TYPE":0,"NORAD_CAT_ID":60511,"ELEMENT_SET_NO":999,"REV_AT_EPOCH":10581,"BSTAR":0.00074588,"MEAN_MOTION_DOT":0.00050648,"MEAN_MOTION_DDOT":0},{"OBJECT_NAME":"FLOCK 4BE-13","OBJECT_ID":"2024-149AW","EPOCH":"2026-07-08T12:04:54.833088","CLASSIFICATION_TYPE":"U","MEAN_MOTION":15.42483542,"ECCENTRICITY":0.0004567,"INCLINATION":97.3713,"RA_OF_ASC_NODE":274.1441,"ARG_OF_PERICENTER":175.8382,"MEAN_ANOMALY":184.2904,"EPHEMERIS_TYPE":0,"NORAD_CAT_ID":60512,"ELEMENT_SET_NO":999,"REV_AT_EPOCH":10565,"BSTAR":0.00024657,"MEAN_MOTION_DOT":0.00010599,"MEAN_MOTION_DDOT":0},{"OBJECT_NAME":"FLOCK 4BE-27","OBJECT_ID":"2024-149AX","EPOCH":"2026-07-08T04:34:05.806272","CLASSIFICATION_TYPE":"U","MEAN_MOTION":15.34829838,"ECCENTRICITY":0.0003228,"INCLINATION":97.3818,"RA_OF_ASC_NODE":271.0558,"ARG_OF_PERICENTER":207.3134,"MEAN_ANOMALY":152.794,"EPHEMERIS_TYPE":0,"NORAD_CAT_ID":60513,"ELEMENT_SET_NO":999,"REV_AT_EPOCH":10536,"BSTAR":0.00018358,"MEAN_MOTION_DOT":0.00006119,"MEAN_MOTION_DDOT":0},{"OBJECT_NAME":"FLOCK 4BE-9","OBJECT_ID":"2024-149AY","EPOCH":"2026-07-07T17:43:01.802784","CLASSIFICATION_TYPE":"U","MEAN_MOTION":15.4143805,"ECCENTRICITY":0.000298,"INCLINATION":97.3784,"RA_OF_ASC_NODE":273.217,"ARG_OF_PERICENTER":192.5638,"MEAN_ANOMALY":167.5535,"EPHEMERIS_TYPE":0,"NORAD_CAT_ID":60514,"ELEMENT_SET_NO":999,"REV_AT_EPOCH":10548,"BSTAR":0.00026835,"MEAN_MOTION_DOT":0.00011145,"MEAN_MOTION_DDOT":0},{"OBJECT_NAME":"FLOCK 4BE-6","OBJECT_ID":"2024-149BA","EPOCH":"2026-07-08T01:02:32.232768","CLASSIFICATION_TYPE":"U","MEAN_MOTION":15.40174807,"ECCENTRICITY":0.0003624,"INCLINATION":97.3782,"RA_OF_ASC_NODE":272.8437,"ARG_OF_PERICENTER":195.3162,"MEAN_ANOMALY":164.7975,"EPHEMERIS_TYPE":0,"NORAD_CAT_ID":60516,"ELEMENT_SET_NO":999,"REV_AT_EPOCH":10548,"BSTAR":0.00022802,"MEAN_MOTION_DOT":0.00009067,"MEAN_MOTION_DDOT":0},{"OBJECT_NAME":"FLOCK 4BE-14","OBJECT_ID":"2024-149BB","EPOCH":"2026-07-07T17:56:49.200288","CLASSIFICATION_TYPE":"U","MEAN_MOTION":15.41681927,"ECCENTRICITY":0.0004586,"INCLINATION":97.3687,"RA_OF_ASC_NODE":272.7009,"ARG_OF_PERICENTER":201.2982,"MEAN_ANOMALY":158.8075,"EPHEMERIS_TYPE":0,"NORAD_CAT_ID":60517,"ELEMENT_SET_NO":999,"REV_AT_EPOCH":10549,"BSTAR":0.00026952,"MEAN_MOTION_DOT":0.00011287,"MEAN_MOTION_DDOT":0},{"OBJECT_NAME":"FLOCK 4BE-1","OBJECT_ID":"2024-149BC","EPOCH":"2026-07-08T04:42:11.961792","CLASSIFICATION_TYPE":"U","MEAN_MOTION":15.43334861,"ECCENTRICITY":0.0004342,"INCLINATION":97.3771,"RA_OF_ASC_NODE":274.5069,"ARG_OF_PERICENTER":199.2903,"MEAN_ANOMALY":160.8181,"EPHEMERIS_TYPE":0,"NORAD_CAT_ID":60518,"ELEMENT_SET_NO":999,"REV_AT_EPOCH":10561,"BSTAR":0.00026151,"MEAN_MOTION_DOT":0.00011573,"MEAN_MOTION_DDOT":0},{"OBJECT_NAME":"FLOCK 4BE-28","OBJECT_ID":"2024-149BD","EPOCH":"2026-07-06T05:40:18.369408","CLASSIFICATION_TYPE":"U","MEAN_MOTION":15.45698118,"ECCENTRICITY":0.00041881,"INCLINATION":97.3771,"RA_OF_ASC_NODE":273.305,"ARG_OF_PERICENTER":219.3554,"MEAN_ANOMALY":140.7391,"EPHEMERIS_TYPE":0,"NORAD_CAT_ID":60519,"ELEMENT_SET_NO":999,"REV_AT_EPOCH":10538,"BSTAR":0.00052926037,"MEAN_MOTION_DOT":0.00025518,"MEAN_MOTION_DDOT":0},{"OBJECT_NAME":"FLOCK 4BE-5","OBJECT_ID":"2024-149CV","EPOCH":"2026-07-07T17:56:07.984032","CLASSIFICATION_TYPE":"U","MEAN_MOTION":15.40891427,"ECCENTRICITY":0.0003307,"INCLINATION":97.3834,"RA_OF_ASC_NODE":272.9528,"ARG_OF_PERICENTER":194.5389,"MEAN_ANOMALY":165.5762,"EPHEMERIS_TYPE":0,"NORAD_CAT_ID":60559,"ELEMENT_SET_NO":999,"REV_AT_EPOCH":10544,"BSTAR":0.00026219,"MEAN_MOTION_DOT":0.00010691,"MEAN_MOTION_DDOT":0}]}
